API VERSION: 1.2
API SOURCE: NASA/JPL Horizons API



*******************************************************************************
Ephemeris / API_USER Wed Apr 15 12:07:58 2026 Pasadena, USA      / Horizons
*******************************************************************************
Target body name: Venus (299)                     {source: DE441}
Center body name: Sun (10)                        {source: DE441}
Center-site name: BODY CENTER
*******************************************************************************
Start time      : A.D. 1978-Nov-28 10:00:28.8000 TDB
Stop  time      : A.D. 1978-Nov-30 10:00:28.8000 TDB
Step-size       : 60 minutes
*******************************************************************************
Center geodetic : 0.0, 0.0, 0.0                   {E-lon(deg),Lat(deg),Alt(km)}
Center cylindric: 0.0, 0.0, 0.0                   {E-lon(deg),Dxy(km),Dz(km)}
Center radii    : 695700.0, 695700.0, 695700.0 km {Equator_a, b, pole_c}
Output units    : AU-D
Calendar mode   : Mixed Julian/Gregorian
Output type     : GEOMETRIC cartesian states
Output format   : 3 (position, velocity, LT, range, range-rate)
Reference frame : Ecliptic of J2000.0
*******************************************************************************
            JDTDB,            Calendar Date (TDB),                      X,                      Y,                      Z,                     VX,                     VY,                     VZ,                     LT,                     RG,                     RR,
**************************************************************************************************************************************************************************************************************************************************************************
$$SOE
2443840.917000000, A.D. 1978-Nov-28 10:00:28.8000,  1.447381028142625E-01,  7.056870922799128E-01,  1.246765669869384E-03, -1.988213040141593E-02,  3.963923058520183E-03,  1.201936373310138E-03,  4.160558277374314E-03,  7.203783346557460E-01, -1.095451656641060E-04,
2443840.958666667, A.D. 1978-Nov-28 11:00:28.8000,  1.439095814549436E-01,  7.058517708162594E-01,  1.296845483950392E-03, -1.988689030666268E-02,  3.940645707136756E-03,  1.201894427147960E-03,  4.160531927362831E-03,  7.203737722926865E-01, -1.094482359057424E-04,
2443841.000333333, A.D. 1978-Nov-28 12:00:28.8000,  1.430808623336962E-01,  7.060154793408152E-01,  1.346923515845733E-03, -1.989162297271247E-02,  3.917362497911792E-03,  1.201850828397444E-03,  4.160505600695402E-03,  7.203692139715249E-01, -1.093511546113082E-04,
2443841.042000000, A.D. 1978-Nov-28 13:00:28.8000,  1.422519465856456E-01,  7.061782176101732E-01,  1.396999696697563E-03, -1.989632839194566E-02,  3.894073463019004E-03,  1.201805577056687E-03,  4.160479297408474E-03,  7.203646596985719E-01, -1.092539219094654E-04,
2443841.083666667, A.D. 1978-Nov-28 14:00:28.8000,  1.414228353462340E-01,  7.063399853822684E-01,  1.447073957647842E-03, -1.990100655678092E-02,  3.870778634642845E-03,  1.201758673126150E-03,  4.160453017538472E-03,  7.203601094801336E-01, -1.091565379290869E-04,
2443841.125333333, A.D. 1978-Nov-28 15:00:28.8000,  1.405935297512186E-01,  7.065007824163756E-01,  1.497146229838729E-03, -1.990565745967519E-02,  3.847478044978458E-03,  1.201710116608647E-03,  4.160426761121782E-03,  7.203555633225104E-01, -1.090590027992763E-04,
2443841.167000000, A.D. 1978-Nov-28 16:00:28.8000,  1.397640309366701E-01,  7.066606084731126E-01,  1.547216444412682E-03, -1.991028109312375E-02,  3.824171726231638E-03,  1.201659907509348E-03,  4.160400528194763E-03,  7.203510212319978E-01, -1.089613166493373E-04,
2443841.208666667, A.D. 1978-Nov-28 17:00:28.8000,  1.389343400389710E-01,  7.068194633144386E-01,  1.597284532512157E-03, -1.991487744966020E-02,  3.800859710618775E-03,  1.201608045835784E-03,  4.160374318793742E-03,  7.203464832148855E-01, -1.088634796088003E-04,
2443841.250333333, A.D. 1978-Nov-28 18:00:28.8000,  1.381044581948143E-01,  7.069773467036553E-01,  1.647350425280060E-03, -1.991944652185650E-02,  3.777542030366814E-03,  1.201554531597842E-03,  4.160348132955014E-03,  7.203419492774576E-01, -1.087654918074150E-04,
2443841.292000000, A.D. 1978-Nov-28 19:00:28.8000,  1.372743865412014E-01,  7.071342584054080E-01,  1.697414053859894E-03, -1.992398830232297E-02,  3.754218717713204E-03,  1.201499364807767E-03,  4.160321970714844E-03,  7.203374194259935E-01, -1.086673533751418E-04,
2443841.333666667, A.D. 1978-Nov-28 20:00:28.8000,  1.364441262154413E-01,  7.072901981856848E-01,  1.747475349395461E-03, -1.992850278370833E-02,  3.730889804905853E-03,  1.201442545480162E-03,  4.160295832109466E-03,  7.203328936667667E-01, -1.085690644421671E-04,
2443841.375333333, A.D. 1978-Nov-28 21:00:28.8000,  1.356136783551479E-01,  7.074451658118182E-01,  1.797534243031510E-03, -1.993298995869969E-02,  3.707555324203081E-03,  1.201384073631991E-03,  4.160269717175081E-03,  7.203283720060449E-01, -1.084706251388809E-04,
2443841.417000000, A.D. 1978-Nov-28 22:00:28.8000,  1.347830440982395E-01,  7.075991610524848E-01,  1.847590665913337E-03, -1.993744982002258E-02,  3.684215307873575E-03,  1.201323949282575E-03,  4.160243625947858E-03,  7.203238544500917E-01, -1.083720355959033E-04,
2443841.458666667, A.D. 1978-Nov-28 23:00:28.8000,  1.339522245829364E-01,  7.077521836777056E-01,  1.897644549187283E-03, -1.994188236044098E-02,  3.660869788196336E-03,  1.201262172453597E-03,  4.160217558463939E-03,  7.203193410051636E-01, -1.082732959440703E-04,
2443841.500333333, A.D. 1978-Nov-29 00:00:28.8000,  1.331212209477597E-01,  7.079042334588475E-01,  1.947695824000439E-03, -1.994628757275730E-02,  3.637518797460637E-03,  1.201198743169097E-03,  4.160191514759428E-03,  7.203148316775129E-01, -1.081744063144291E-04,
2443841.542000000, A.D. 1978-Nov-29 01:00:28.8000,  1.322900343315297E-01,  7.080553101686224E-01,  1.997744421500987E-03, -1.995066544981243E-02,  3.614162367965977E-03,  1.201133661455476E-03,  4.160165494870404E-03,  7.203103264733854E-01, -1.080753668382450E-04,
2443841.583666667, A.D. 1978-Nov-29 02:00:28.8000,  1.314586658733640E-01,  7.082054135810885E-01,  2.047790272838360E-03, -1.995501598448574E-02,  3.590800532022030E-03,  1.201066927341499E-03,  4.160139498832908E-03,  7.203058253990223E-01, -1.079761776470047E-04,
2443841.625333333, A.D. 1978-Nov-29 03:00:28.8000,  1.306271167126762E-01,  7.083545434716503E-01,  2.097833309163182E-03, -1.995933916969512E-02,  3.567433321948595E-03,  1.200998540858286E-03,  4.160113526682956E-03,  7.203013284606591E-01, -1.078768388724130E-04,
2443841.667000000, A.D. 1978-Nov-29 04:00:28.8000,  1.297953879891743E-01,  7.085026996170593E-01,  2.147873461627422E-03, -1.996363499839695E-02,  3.544060770075561E-03,  1.200928502039323E-03,  4.160087578456526E-03,  7.202968356645254E-01, -1.077773506463867E-04,
2443841.708666667, A.D. 1978-Nov-29 05:00:28.8000,  1.289634808428586E-01,  7.086498817954140E-01,  2.197910661384544E-03, -1.996790346358614E-02,  3.520682908742849E-03,  1.200856810920454E-03,  4.160061654189569E-03,  7.202923470168456E-01, -1.076777131010602E-04,
2443841.750333333, A.D. 1978-Nov-29 06:00:28.8000,  1.281313964140210E-01,  7.087960897861612E-01,  2.247944839589458E-03, -1.997214455829619E-02,  3.497299770300367E-03,  1.200783467539887E-03,  4.160035753918001E-03,  7.202878625238390E-01, -1.075779263687891E-04,
2443841.792000000, A.D. 1978-Nov-29 07:00:28.8000,  1.272991358432424E-01,  7.089413233700953E-01,  2.297975927398666E-03, -1.997635827559913E-02,  3.473911387107963E-03,  1.200708471938194E-03,  4.160009877677709E-03,  7.202833821917185E-01, -1.074779905821385E-04,
2443841.833666667, A.D. 1978-Nov-29 08:00:28.8000,  1.264667002713919E-01,  7.090855823293594E-01,  2.348003855970610E-03, -1.998054460860558E-02,  3.450517791535384E-03,  1.200631824158302E-03,  4.159984025504545E-03,  7.202789060266921E-01, -1.073779058738979E-04,
2443841.875333333, A.D. 1978-Nov-29 09:00:28.8000,  1.256340908396246E-01,  7.092288664474453E-01,  2.398028556465579E-03, -1.998470355046476E-02,  3.427119015962215E-03,  1.200553524245508E-03,  4.159958197434330E-03,  7.202744340349621E-01, -1.072776723770736E-04,
2443841.917000000, A.D. 1978-Nov-29 10:00:28.8000,  1.248013086893803E-01,  7.093711755091949E-01,  2.448049960045454E-03, -1.998883509436450E-02,  3.403715092777846E-03,  1.200473572247470E-03,  4.159932393502856E-03,  7.202699662227253E-01, -1.071772902248797E-04,
2443841.958666667, A.D. 1978-Nov-29 11:00:28.8000,  1.239683549623821E-01,  7.095125093007989E-01,  2.498067997874606E-03, -1.999293923353127E-02,  3.380306054381418E-03,  1.200391968214206E-03,  4.159906613745877E-03,  7.202655025961728E-01, -1.070767595507582E-04,
2443842.000333333, A.D. 1978-Nov-29 12:00:28.8000,  1.231352308006343E-01,  7.096528676097988E-01,  2.548082601119099E-03, -1.999701596123017E-02,  3.356891933181773E-03,  1.200308712198102E-03,  4.159880858199120E-03,  7.202610431614904E-01, -1.069760804883614E-04,
2443842.042000000, A.D. 1978-Nov-29 13:00:28.8000,  1.223019373464208E-01,  7.097922502250865E-01,  2.598093700947637E-03, -2.000106527076498E-02,  3.333472761597413E-03,  1.200223804253904E-03,  4.159855126898278E-03,  7.202565879248579E-01, -1.068752531715574E-04,
2443842.083666667, A.D. 1978-Nov-29 14:00:28.8000,  1.214684757423042E-01,  7.099306569369047E-01,  2.648101228531016E-03, -2.000508715547814E-02,  3.310048572056449E-03,  1.200137244438725E-03,  4.159829419879012E-03,  7.202521368924499E-01, -1.067742777344351E-04,
2443842.125333333, A.D. 1978-Nov-29 15:00:28.8000,  1.206348471311232E-01,  7.100680875368479E-01,  2.698105115042373E-03, -2.000908160875078E-02,  3.286619396996555E-03,  1.200049032812041E-03,  4.159803737176951E-03,  7.202476900704355E-01, -1.066731543112932E-04,
